0 ONEWEB-0130
1 47276U 20100U   26180.54029455  .00000416  00000-0  11223-2 0  9992
2 47276  87.8954 348.1955 0001838  96.5284 263.6054 13.12441739266261
0 ONEWEB-0139
1 47285U 20100AD  26180.51841036  .00000255  00000-0  67248-3 0  9996
2 47285  87.8953 348.1991 0001865  94.1050 266.0292 13.12442732266349
0 ONEWEB-0141
1 47287U 20100AF  26180.51812903  .00000194  00000-0  50391-3 0  9992
2 47287  87.8952 348.1950 0002048  87.1420 272.9942 13.12443793266292
0 ONEWEB-0143
1 47289U 20100AH  26180.51657368  .00000096  00000-0  23091-3 0  9994
2 47289  87.8950 348.2156 0001856  92.3507 267.7834 13.12443770266265
0 ONEWEB-0142
1 47288U 20100AG  26180.50655495 -.00000104  00000-0 -32469-3 0  9992
2 47288  87.8948 348.2182 0002268  93.9054 266.2333 13.12444912266281
0 ONEWEB-0133
1 47279U 20100X   26180.50626480 -.00000145  00000-0 -43834-3 0  9997
2 47279  87.8959 348.1989 0001690  95.3859 264.7462 13.12443914266359
0 ONEWEB-0137
1 47283U 20100AB  26180.49962631 -.00000284  00000-0 -82600-3 0  9999
2 47283  87.8959 348.2116 0001931  89.5827 270.5522 13.12443418266187
0 ONEWEB-0132
1 47278U 20100W   26180.48945409 -.00000412  00000-0 -11806-2 0  9998
2 47278  87.8946 348.2246 0001779  94.1576 265.9755 13.12441844266192
0 ONEWEB-0144
1 47290U 20100AJ  26180.48776372 -.00000382  00000-0 -10962-2 0  9991
2 47290  87.8958 348.1956 0002074 101.3299 258.8063 13.12441549266182
0 ONEWEB-0138
1 47284U 20100AC  26180.47760264 -.00000089  00000-0 -28396-3 0  9991
2 47284  87.8954 348.2208 0001893 100.0503 260.0839 13.12441014266266
0 ONEWEB-0134
1 47280U 20100Y   26180.47590384  .00000007  00000-0 -15603-4 0  9998
2 47280  87.8958 348.2018 0001827 101.8687 258.2646 13.12440425266321
0 ONEWEB-0140
1 47286U 20100AE  26180.47252102  .00000125  00000-0  31181-3 0  9995
2 47286  87.8954 348.1990 0001646  94.0391 266.0925 13.12440777266300
0 ONEWEB-0136
1 47282U 20100AA  26180.46574662  .00000296  00000-0  78780-3 0  9993
2 47282  87.8953 348.2074 0001838 103.5041 256.6293 13.12440850266271
0 ONEWEB-0131
1 47277U 20100V   26180.46066951  .00000465  00000-0  12566-2 0  9991
2 47277  87.8944 348.2281 0001672  97.2227 262.9092 13.12443993266296
0 ONEWEB-0135
1 47281U 20100Z   26180.44711306  .00000388  00000-0  10422-2 0  9998
2 47281  87.8944 348.2290 0001715 102.3638 257.7682 13.12442669266345
